OBJECT_NAME,OBJECT_ID,EPOCH,MEAN_MOTION,ECCENTRICITY,INCLINATION,RA_OF_ASC_NODE,ARG_OF_PERICENTER,MEAN_ANOMALY,EPHEMERIS_TYPE,CLASSIFICATION_TYPE,NORAD_CAT_ID,ELEMENT_SET_NO,REV_AT_EPOCH,BSTAR,MEAN_MOTION_DOT,MEAN_MOTION_DDOT
SAR-LUPE 2,2007-030A,2026-07-03T14:26:10.318848,15.52692613,.00032933,98.1066,291.1001,224.1014,135.9975,0,U,31797,999,5948,.74179179E-3,.45845E-3,0
SAPPHIRE,2013-009C,2026-07-02T18:40:18.307488,14.35244915,.00108004,98.4267,2.8639,196.6808,163.4024,0,U,39088,999,69881,.56798917E-4,.12E-5,0
PRAETORIAN SDA_602,2025-203A,2026-07-02T20:31:22.433664,13.83887074,.00066553,81.3032,356.2587,146.7193,213.4383,0,U,65565,999,4086,.81118349E-4,.102E-5,0
PRAETORIAN SDA_603,2025-203B,2026-07-02T19:28:55.936992,13.83925227,.00103227,81.3065,356.2198,142.6945,217.4930,0,U,65566,999,4086,.27998109E-2,.312E-4,0
PRAETORIAN SDA_604,2025-203C,2026-07-02T20:11:17.644416,13.83049189,.00061102,81.3055,356.6301,150.2787,209.8717,0,U,65567,999,4084,.48759789E-4,.65E-6,0
PRAETORIAN SDA_605,2025-203D,2026-07-02T19:15:05.166432,13.83435092,.00089016,81.3021,356.3141,142.2371,217.9411,0,U,65568,999,4085,.10187995E-4,.23E-6,0
PRAETORIAN SDA_606,2025-203E,2026-07-02T17:09:39.652992,13.83199270,.00067586,81.3058,356.6281,145.3381,214.8217,0,U,65569,999,4083,.4861237E-4,.65E-6,0
PRAETORIAN SDA_607,2025-203F,2026-07-02T20:31:52.568256,13.84254779,.00091332,81.3046,356.1319,148.8430,211.3270,0,U,65570,999,4087,-.31048354E-2,-.3451E-4,0
PRAETORIAN SDA_608,2025-203G,2026-07-02T20:06:53.003808,13.83818553,.00066118,81.3010,356.3163,149.3901,210.7643,0,U,65571,999,4085,.68467529E-4,.88E-6,0
PRAETORIAN SDA_609,2025-203H,2026-07-02T20:07:34.121568,13.84210698,.00075077,81.3049,356.2962,144.4622,215.7037,0,U,65572,999,4086,.18053735E-3,.213E-5,0
PRAETORIAN SDA_610,2025-203J,2026-07-02T19:38:30.069312,13.83769250,.00073835,81.3011,356.2940,149.1111,211.0481,0,U,65573,999,4085,.58180378E-4,.76E-6,0
PRAETORIAN SDA_611,2025-203K,2026-07-02T19:47:06.670464,13.83310718,.00061726,81.3015,356.4647,152.8637,207.2843,0,U,65574,999,4084,.38949507E-3,.439E-5,0
PRAETORIAN SDA_612,2025-203L,2026-07-02T17:20:01.773600,13.85040999,.00099849,81.3022,356.1077,145.4384,214.7424,0,U,65575,999,4086,.13507179E-3,.165E-5,0
PRAETORIAN SDA_613,2025-203M,2026-07-02T20:05:40.540992,13.82766691,.00063656,81.3002,356.4622,143.5306,216.6284,0,U,65576,999,4084,.5588012E-4,.73E-6,0
PRAETORIAN SDA_614,2025-203N,2026-07-02T10:12:29.447712,13.84778391,.0007826,81.3016,356.4646,143.8446,216.3242,0,U,65577,999,4082,.27247E-4,.43E-6,0
PRAETORIAN SDA_615,2025-203P,2026-07-02T20:09:02.069856,13.84437727,.00097119,81.3023,356.0543,144.0896,216.0915,0,U,65578,999,4087,.16963864E-3,.202E-5,0
PRAETORIAN SDA_616,2025-203Q,2026-07-02T19:46:39.101952,13.83269442,.00060807,81.3066,356.6211,150.9884,209.1612,0,U,65579,999,4084,.17968534E-3,.209E-5,0
PRAETORIAN SDA_617,2025-203R,2026-07-02T20:19:40.975392,13.83151280,.00080961,81.3040,356.4295,143.2612,216.9101,0,U,65580,999,4085,.448403E-4,.61E-6,0
PRAETORIAN SDA_618,2025-203S,2026-07-02T17:35:11.485248,13.84225059,.00104642,81.3016,356.0813,147.7075,212.4724,0,U,65581,999,4086,.18520399E-3,.219E-5,0
PRAETORIAN SDA_619,2025-203T,2026-07-02T20:22:08.588064,13.83806831,.00089038,81.3045,356.2917,144.8170,215.3576,0,U,65582,999,4149,.13566173E-3,.162E-5,0
PRAETORIAN SDA_620,2025-203U,2026-07-02T17:37:19.680384,13.83561694,.00085016,81.3057,356.4185,152.4200,207.7409,0,U,65583,999,4084,-.75513653E-2,-.8305E-4,0
PRAETORIAN SDA_621,2025-203V,2026-07-02T20:24:45.816192,13.83802908,.00081558,81.3023,356.2247,138.3949,221.7830,0,U,65584,999,4086,.57482814E-4,.76E-6,0
PRAETORIAN SDA_601,2025-203W,2026-07-02T19:52:47.739648,13.83169137,.00061026,81.3042,356.5592,153.6874,206.4593,0,U,65585,999,4084,.22493089E-4,.37E-6,0
VICTUS HAZE PUMA,2026-142A,2026-07-03T15:57:40.519584,15.20705209,.0025802,97.4480,82.1024,308.9584,50.9352,0,U,69646,999,217,.19825095E-4,.368E-5,0
